{
  "type": "FeatureCollection",
  "features": [
    {
      "type": "Feature",
      "properties": {
        "norad_id": 44873,
        "name": "CSG-1",
        "group": "resource",
        "lat": -6.008341523442656,
        "lon": -13.552292337561346,
        "alt_km": 626.4934625228316,
        "timestamp": "2025-12-11T22:43:46.929304+00:00",
        "meta_object_name": "CSG-1",
        "meta_object_id": "2019-092A",
        "meta_epoch": "2025-12-11T13:47:32.264736",
        "meta_mean_motion": 14.82161816,
        "meta_eccentricity": 0.00014408,
        "meta_inclination": 97.881,
        "meta_ra_of_asc_node": 166.9164,
        "meta_arg_of_pericenter": 84.9196,
        "meta_mean_anomaly": 275.2182,
        "meta_ephemeris_type": 0,
        "meta_classification_type": "U",
        "meta_norad_cat_id": 44873,
        "meta_element_set_no": 999,
        "meta_rev_at_epoch": 32368,
        "meta_bstar": 0.00013479027,
        "meta_mean_motion_dot": 1.021e-05,
        "meta_mean_motion_ddot": 0,
        "tle_line1": "1 44873U 19092A   25345.57467899  .00001021  00000+0  13479-3 0  9991",
        "tle_line2": "2 44873  97.8810 166.9164 0001440  84.9196 275.2182 14.82161816323687"
      },
      "geometry": {
        "type": "Point",
        "coordinates": [
          -13.552292337561346,
          -6.008341523442656
        ]
      }
    },
    {
      "type": "Feature",
      "properties": {
        "norad_id": 46277,
        "name": "NEMO-HD",
        "group": "resource",
        "lat": 0.8183303935112756,
        "lon": -134.84156022653676,
        "alt_km": 448.9622331189921,
        "timestamp": "2025-12-11T22:43:46.929314+00:00",
        "meta_object_name": "NEMO-HD",
        "meta_object_id": "2020-061F",
        "meta_epoch": "2025-12-11T14:09:32.831712",
        "meta_mean_motion": 15.40287571,
        "meta_eccentricity": 0.00019559,
        "meta_inclination": 97.2212,
        "meta_ra_of_asc_node": 44.7021,
        "meta_arg_of_pericenter": 57.7257,
        "meta_mean_anomaly": 302.4179,
        "meta_ephemeris_type": 0,
        "meta_classification_type": "U",
        "meta_norad_cat_id": 46277,
        "meta_element_set_no": 999,
        "meta_rev_at_epoch": 29306,
        "meta_bstar": 0.00039709219,
        "meta_mean_motion_dot": 0.00015926,
        "meta_mean_motion_ddot": 0,
        "tle_line1": "1 46277U 20061F   25345.58996333  .00015926  00000+0  39709-3 0  9993",
        "tle_line2": "2 46277  97.2212  44.7021 0001955  57.7257 302.4179 15.40287571293068"
      },
      "geometry": {
        "type": "Point",
        "coordinates": [
          -134.84156022653676,
          0.8183303935112756
        ]
      }
    },
    {
      "type": "Feature",
      "properties": {
        "norad_id": 46984,
        "name": "SENTINEL-6A",
        "group": "resource",
        "lat": 39.58191488422497,
        "lon": -174.47628786017304,
        "alt_km": 1337.955973441658,
        "timestamp": "2025-12-11T22:43:46.929325+00:00",
        "meta_object_name": "SENTINEL-6A",
        "meta_object_id": "2020-086A",
        "meta_epoch": "2025-12-11T11:15:24.033888",
        "meta_mean_motion": 12.80930611,
        "meta_eccentricity": 0.0007729,
        "meta_inclination": 66.039,
        "meta_ra_of_asc_node": 164.9476,
        "meta_arg_of_pericenter": 269.1796,
        "meta_mean_anomaly": 90.8333,
        "meta_ephemeris_type": 0,
        "meta_classification_type": "U",
        "meta_norad_cat_id": 46984,
        "meta_element_set_no": 999,
        "meta_rev_at_epoch": 23628,
        "meta_bstar": 0.0001221224,
        "meta_mean_motion_dot": -3.3e-07,
        "meta_mean_motion_ddot": 0,
        "tle_line1": "1 46984U 20086A   25345.46902817 -.00000033  00000+0  12212-3 0  9990",
        "tle_line2": "2 46984  66.0390 164.9476 0007729 269.1796  90.8333 12.80930611236287"
      },
      "geometry": {
        "type": "Point",
        "coordinates": [
          -174.47628786017304,
          39.58191488422497
        ]
      }
    },
    {
      "type": "Feature",
      "properties": {
        "norad_id": 48079,
        "name": "GAOFEN-12 02",
        "group": "resource",
        "lat": 81.9934777485065,
        "lon": -113.70204103085746,
        "alt_km": 617.3203930692271,
        "timestamp": "2025-12-11T22:43:46.929335+00:00",
        "meta_object_name": "GAOFEN-12 02",
        "meta_object_id": "2021-026A",
        "meta_epoch": "2025-12-11T14:12:47.803680",
        "meta_mean_motion": 14.80672924,
        "meta_eccentricity": 0.00035158,
        "meta_inclination": 97.9851,
        "meta_ra_of_asc_node": 339.6041,
        "meta_arg_of_pericenter": 103.3496,
        "meta_mean_anomaly": 256.8108,
        "meta_ephemeris_type": 0,
        "meta_classification_type": "U",
        "meta_norad_cat_id": 48079,
        "meta_element_set_no": 999,
        "meta_rev_at_epoch": 25400,
        "meta_bstar": 0.00011692877,
        "meta_mean_motion_dot": 8.46e-06,
        "meta_mean_motion_ddot": 0,
        "tle_line1": "1 48079U 21026A   25345.59221995  .00000846  00000+0  11693-3 0  9990",
        "tle_line2": "2 48079  97.9851 339.6041 0003515 103.3496 256.8108 14.80672924254009"
      },
      "geometry": {
        "type": "Point",
        "coordinates": [
          -113.70204103085746,
          81.9934777485065
        ]
      }
    },
    {
      "type": "Feature",
      "properties": {
        "norad_id": 48268,
        "name": "PLEIADES NEO 3",
        "group": "resource",
        "lat": 24.937192675810035,
        "lon": -117.9018099438166,
        "alt_km": 622.8827257299163,
        "timestamp": "2025-12-11T22:43:46.929346+00:00",
        "meta_object_name": "PLEIADES NEO 3",
        "meta_object_id": "2021-034A",
        "meta_epoch": "2025-12-11T15:33:02.938752",
        "meta_mean_motion": 14.81681249,
        "meta_eccentricity": 0.00014091,
        "meta_inclination": 97.8941,
        "meta_ra_of_asc_node": 58.1044,
        "meta_arg_of_pericenter": 92.5923,
        "meta_mean_anomaly": 267.5451,
        "meta_ephemeris_type": 0,
        "meta_classification_type": "U",
        "meta_norad_cat_id": 48268,
        "meta_element_set_no": 999,
        "meta_rev_at_epoch": 24988,
        "meta_bstar": 0.00029386856,
        "meta_mean_motion_dot": 2.262e-05,
        "meta_mean_motion_ddot": 0,
        "tle_line1": "1 48268U 21034A   25345.64795068  .00002262  00000+0  29387-3 0  9995",
        "tle_line2": "2 48268  97.8941  58.1044 0001409  92.5923 267.5451 14.81681249249889"
      },
      "geometry": {
        "type": "Point",
        "coordinates": [
          -117.9018099438166,
          24.937192675810035
        ]
      }
    },
    {
      "type": "Feature",
      "properties": {
        "norad_id": 49070,
        "name": "PLEIADES NEO 4",
        "group": "resource",
        "lat": -25.155134631364987,
        "lon": 62.13114104033195,
        "alt_km": 630.086997907556,
        "timestamp": "2025-12-11T22:43:46.929356+00:00",
        "meta_object_name": "PLEIADES NEO 4",
        "meta_object_id": "2021-073E",
        "meta_epoch": "2025-12-11T14:44:24.948096",
        "meta_mean_motion": 14.81673963,
        "meta_eccentricity": 0.00013218,
        "meta_inclination": 97.8942,
        "meta_ra_of_asc_node": 58.0671,
        "meta_arg_of_pericenter": 91.6704,
        "meta_mean_anomaly": 268.4661,
        "meta_ephemeris_type": 0,
        "meta_classification_type": "U",
        "meta_norad_cat_id": 49070,
        "meta_element_set_no": 999,
        "meta_rev_at_epoch": 23359,
        "meta_bstar": -2.5940388e-05,
        "meta_mean_motion_dot": -2.56e-06,
        "meta_mean_motion_ddot": 0,
        "tle_line1": "1 49070U 21073E   25345.61417764 -.00000256  00000+0 -25940-4 0  9996",
        "tle_line2": "2 49070  97.8942  58.0671 0001321  91.6704 268.4661 14.81673963233595"
      },
      "geometry": {
        "type": "Point",
        "coordinates": [
          62.13114104033195,
          -25.155134631364987
        ]
      }
    },
    {
      "type": "Feature",
      "properties": {
        "norad_id": 49260,
        "name": "LANDSAT 9",
        "group": "resource",
        "lat": 60.28777634567178,
        "lon": 39.41526600842801,
        "alt_km": 696.0175581417507,
        "timestamp": "2025-12-11T22:43:46.929366+00:00",
        "meta_object_name": "LANDSAT 9",
        "meta_object_id": "2021-088A",
        "meta_epoch": "2025-12-11T10:54:45.357696",
        "meta_mean_motion": 14.57096832,
        "meta_eccentricity": 0.00011609,
        "meta_inclination": 98.2103,
        "meta_ra_of_asc_node": 53.5852,
        "meta_arg_of_pericenter": 96.5157,
        "meta_mean_anomaly": 263.6174,
        "meta_ephemeris_type": 0,
        "meta_classification_type": "U",
        "meta_norad_cat_id": 49260,
        "meta_element_set_no": 999,
        "meta_rev_at_epoch": 22366,
        "meta_bstar": 0.0001805218,
        "meta_mean_motion_dot": 7.68e-06,
        "meta_mean_motion_ddot": 0,
        "tle_line1": "1 49260U 21088A   25345.45469164  .00000768  00000+0  18052-3 0  9997",
        "tle_line2": "2 49260  98.2103  53.5852 0001160  96.5157 263.6174 14.57096832223668"
      },
      "geometry": {
        "type": "Point",
        "coordinates": [
          39.41526600842801,
          60.28777634567178
        ]
      }
    }
  ]
}